[{"OBJECT_NAME":"STARLINK-34484","OBJECT_ID":"2025-126Y","EPOCH":"2026-03-09T22:40:13.039968","MEAN_MOTION":14.98340581,"ECCENTRICITY":0.00022443,"INCLINATION":70.0047,"RA_OF_ASC_NODE":33.6675,"ARG_OF_PERICENTER":243.5816,"MEAN_ANOMALY":116.5113,"EPHEMERIS_TYPE":0,"CLASSIFICATION_TYPE":"U","NORAD_CAT_ID":64366,"ELEMENT_SET_NO":999,"REV_AT_EPOCH":4193,"BSTAR":0.00057375299,"MEAN_MOTION_DOT":6.761e-5,"MEAN_MOTION_DDOT":0},{"OBJECT_NAME":"CZ-4C R\/B","OBJECT_ID":"2021-109B","EPOCH":"2026-03-09T22:38:24.916416","MEAN_MOTION":14.75647247,"ECCENTRICITY":0.01171981,"INCLINATION":98.2159,"RA_OF_ASC_NODE":140.2327,"ARG_OF_PERICENTER":108.8459,"MEAN_ANOMALY":252.5502,"EPHEMERIS_TYPE":0,"CLASSIFICATION_TYPE":"U","NORAD_CAT_ID":49496,"ELEMENT_SET_NO":999,"REV_AT_EPOCH":23090,"BSTAR":0.00015081956,"MEAN_MOTION_DOT":1.092e-5,"MEAN_MOTION_DDOT":0}]
